ONEWEB-0240             
1 48785U 21045U   26191.15227913  .00000016  00000+0  85047-5 0  9998
2 48785  87.9010 254.6111 0002336 105.8911 254.2477 13.15549412247423
ONEWEB-0246             
1 48786U 21045V   26190.15798875  .00000083  00000+0  18525-3 0  9997
2 48786  87.8997 254.8120 0001953 100.1645 259.9706 13.15547594247162
ONEWEB-0210             
1 48787U 21045W   26191.12138157 -.00000091  00000+0 -27506-3 0  9997
2 48787  87.8998 254.6177 0001622 121.5636 238.5653 13.15547859247331
ONEWEB-0214             
1 48788U 21045X   26191.13008075 -.00000124  00000+0 -36252-3 0  9999
2 48788  87.8997 254.6128 0001726  98.4070 261.7256 13.15546491247301
ONEWEB-0221             
1 48789U 21045Y   26191.13723175 -.00000185  00000+0 -52430-3 0  9998
2 48789  87.9001 254.6205 0002125 104.2559 255.8808 13.15548735247396
ONEWEB-0213             
1 48790U 21045Z   26191.12613849 -.00000110  00000+0 -32755-3 0  9991
2 48790  87.9000 254.6251 0002039 106.2675 253.8680 13.15548658247450
ONEWEB-0212             
1 48791U 21045AA  26191.10314769  .00000078  00000+0  17315-3 0  9995
2 48791  87.8997 254.6239 0002099  98.3923 261.7445 13.15547012247443
ONEWEB-0227             
1 48792U 21045AB  26191.17842619  .00000111  00000+0  25990-3 0  9999
2 48792  87.8996 254.6094 0002122 101.3385 258.7984 13.15547872247400
ONEWEB-0226             
1 48793U 21045AC  26190.41151146  .00000124  00000+0  29577-3 0  9993
2 48793  87.8997 254.7664 0001953 106.6086 253.5259 13.15547838247278
ONEWEB-0224             
1 48794U 21045AD  26190.14690340 -.00000043  00000+0 -14853-3 0  9991
2 48794  87.8987 254.8527 0002937 104.1681 255.9776 13.15548547247160
ONEWEB-0233             
1 48795U 21045AE  26190.15152033  .00000020  00000+0  18788-4 0  9990
2 48795  87.8987 254.8586 0002175 106.2000 253.9370 13.15550121247189
ONEWEB-0190             
1 48796U 21045AF  26191.12772173 -.00000107  00000+0 -31846-3 0  9999
2 48796  87.8994 254.6272 0002107 117.6360 242.4985 13.15548525247380
ONEWEB-0236             
1 48797U 21045AG  26191.52544234 -.00000051  00000+0 -16952-3 0  9998
2 48797  87.8994 254.5577 0002234  97.3396 262.7988 13.15548104247327
ONEWEB-0248             
1 48798U 21045AH  26189.71273891  .00000207  00000+0  51649-3 0  9998
2 48798  87.9000 254.9035 0002306 110.5693 249.5685 13.15548631247241
ONEWEB-0225             
1 48799U 21045AJ  26191.18001473  .00000098  00000+0  22575-3 0  9992
2 48799  87.8990 254.6186 0002098 113.8078 246.3272 13.15548055247443
ONEWEB-0215             
1 48800U 21045AK  26191.14990307  .00000040  00000+0  71492-4 0  9994
2 48800  87.9002 254.6084 0002261 116.6726 243.4636 13.15549141247316
ONEWEB-0216             
1 48801U 21045AL  26191.15941519  .00000138  00000+0  33127-3 0  9997
2 48801  87.8991 254.6208 0001951  98.0847 262.0504 13.15548002247320
ONEWEB-0239             
1 48802U 21045AM  26191.16416955  .00000167  00000+0  41039-3 0  9993
2 48802  87.8982 254.6235 0002583 115.3998 244.7400 13.15547720247365
FENGYUN 4B              
1 48808U 21047A   26191.58070218 -.00000319  00000+0  00000+0 0  9994
2 48808   0.2078  79.5500 0005740 273.4385 249.1781  1.00265170 18802
SXM-8                   
1 48838U 21049A   26191.17870207 -.00000194  00000+0  00000+0 0  9991
2 48838   0.0171  40.1187 0005283 351.3392 235.8336  1.00270362 18816
NAVSTAR 81 (USA 319)    
1 48859U 21054A   26191.45463917 -.00000082  00000+0  00000+0 0  9993
2 48859  55.1624 331.5250 0026341 228.5038 140.5391  2.00567302 37224
STARLINK-3005           
1 48881U 21059C   26191.32257090 -.00000013  00000+0  33943-5 0  9994
2 48881  97.4722 315.6297 0004269 179.9327 180.1899 15.01263311277201
TYVAK-0173              
1 48892U 21059P   26191.15543049  .00001017  00000+0  13228-3 0  9995
2 48892  96.0076 261.8029 0007607 320.8446  39.2220 14.81962329271649
MANDRAKE 2 ABLE         
1 48907U 21059AE  26190.49753108  .00017009  00000+0  24681-3 0  9990
2 48907  97.7035  21.9981 0003489 260.3413  99.7446 15.55902718280590
