OBJECT_NAME,OBJECT_ID,EPOCH,MEAN_MOTION,ECCENTRICITY,INCLINATION,RA_OF_ASC_NODE,ARG_OF_PERICENTER,MEAN_ANOMALY,EPHEMERIS_TYPE,CLASSIFICATION_TYPE,NORAD_CAT_ID,ELEMENT_SET_NO,REV_AT_EPOCH,BSTAR,MEAN_MOTION_DOT,MEAN_MOTION_DDOT
ONEWEB-0240,2021-045U,2026-07-10T03:39:16.916832,13.15549412,.00023368,87.9010,254.6111,105.8911,254.2477,0,U,48785,999,24742,.8504691E-5,.16E-6,0
ONEWEB-0246,2021-045V,2026-07-09T03:47:30.228000,13.15547594,.00019538,87.8997,254.8120,100.1645,259.9706,0,U,48786,999,24716,.18524842E-3,.83E-6,0
ONEWEB-0210,2021-045W,2026-07-10T02:54:47.367648,13.15547859,.00016221,87.8998,254.6177,121.5636,238.5653,0,U,48787,999,24733,-.27505813E-3,-.91E-6,0
ONEWEB-0214,2021-045X,2026-07-10T03:07:18.976800,13.15546491,.00017262,87.8997,254.6128,98.4070,261.7256,0,U,48788,999,24730,-.36251552E-3,-.124E-5,0
ONEWEB-0221,2021-045Y,2026-07-10T03:17:36.823200,13.15548735,.00021258,87.9001,254.6205,104.2559,255.8808,0,U,48789,999,24739,-.52429947E-3,-.185E-5,0
ONEWEB-0213,2021-045Z,2026-07-10T03:01:38.365536,13.15548658,.00020391,87.9000,254.6251,106.2675,253.8680,0,U,48790,999,24745,-.32755499E-3,-.11E-5,0
ONEWEB-0212,2021-045AA,2026-07-10T02:28:31.960416,13.15547012,.00020993,87.8997,254.6239,98.3923,261.7445,0,U,48791,999,24744,.17314752E-3,.78E-6,0
ONEWEB-0227,2021-045AB,2026-07-10T04:16:56.022816,13.15547872,.00021226,87.8996,254.6094,101.3385,258.7984,0,U,48792,999,24740,.25990049E-3,.111E-5,0
ONEWEB-0226,2021-045AC,2026-07-09T09:52:34.590144,13.15547838,.00019533,87.8997,254.7664,106.6086,253.5259,0,U,48793,999,24727,.29576888E-3,.124E-5,0
ONEWEB-0224,2021-045AD,2026-07-09T03:31:32.453760,13.15548547,.0002937,87.8987,254.8527,104.1681,255.9776,0,U,48794,999,24716,-.14852744E-3,-.43E-6,0
ONEWEB-0233,2021-045AE,2026-07-09T03:38:11.356512,13.15550121,.00021756,87.8987,254.8586,106.2000,253.9370,0,U,48795,999,24718,.18787934E-4,.2E-6,0
ONEWEB-0190,2021-045AF,2026-07-10T03:03:55.157472,13.15548525,.00021073,87.8994,254.6272,117.6360,242.4985,0,U,48796,999,24738,-.31846083E-3,-.107E-5,0
ONEWEB-0236,2021-045AG,2026-07-10T12:36:38.218176,13.15548104,.00022343,87.8994,254.5577,97.3396,262.7988,0,U,48797,999,24732,-.16952496E-3,-.51E-6,0
ONEWEB-0248,2021-045AH,2026-07-08T17:06:20.641824,13.15548631,.00023066,87.9000,254.9035,110.5693,249.5685,0,U,48798,999,24724,.51649143E-3,.207E-5,0
ONEWEB-0225,2021-045AJ,2026-07-10T04:19:13.272672,13.15548055,.00020981,87.8990,254.6186,113.8078,246.3272,0,U,48799,999,24744,.22575108E-3,.98E-6,0
ONEWEB-0215,2021-045AK,2026-07-10T03:35:51.625248,13.15549141,.0002261,87.9002,254.6084,116.6726,243.4636,0,U,48800,999,24731,.71492033E-4,.4E-6,0
ONEWEB-0216,2021-045AL,2026-07-10T03:49:33.472416,13.15548002,.00019519,87.8991,254.6208,98.0847,262.0504,0,U,48801,999,24732,.3312737E-3,.138E-5,0
ONEWEB-0239,2021-045AM,2026-07-10T03:56:24.249120,13.15547720,.00025834,87.8982,254.6235,115.3998,244.7400,0,U,48802,999,24736,.41039004E-3,.167E-5,0
FENGYUN 4B,2021-047A,2026-07-10T13:56:12.668352,1.00265170,.00057409,0.2078,79.5500,273.4385,249.1781,0,U,48808,999,1880,0,-.319E-5,0
SXM-8,2021-049A,2026-07-10T04:17:19.858848,1.00270362,.0005283,0.0171,40.1187,351.3392,235.8336,0,U,48838,999,1881,0,-.194E-5,0
NAVSTAR 81 (USA 319),2021-054A,2026-07-10T10:54:40.824288,2.00567302,.00263413,55.1624,331.5250,228.5038,140.5391,0,U,48859,999,3722,0,-.82E-6,0
STARLINK-3005,2021-059C,2026-07-10T07:44:30.125760,15.01263311,.00042694,97.4722,315.6297,179.9327,180.1899,0,U,48881,999,27720,.3394339E-5,-.13E-6,0
TYVAK-0173,2021-059P,2026-07-10T03:43:49.194336,14.81962329,.00076078,96.0076,261.8029,320.8446,39.2220,0,U,48892,999,27164,.13227728E-3,.1017E-4,0
MANDRAKE 2 ABLE,2021-059AE,2026-07-09T11:56:26.685312,15.55902718,.00034894,97.7035,21.9981,260.3413,99.7446,0,U,48907,999,28059,.24681183E-3,.17009E-3,0
